{"type": "FeatureCollection", "features": [ {"type": "Feature", "properties": {"norad_id": 43437, "name": "SENTINEL-3B", "group": "resource", "lat": 5.630723366633313, "lon": 63.55418096109338, "alt_km": 804.6722879853733, "timestamp": "2025-12-25T09:48:51.943911+00:00", "meta": {"OBJECT_NAME": "SENTINEL-3B", "OBJECT_ID": "2018-039A", "EPOCH": "2025-12-25T03:03:19.264320", "MEAN_MOTION": 14.26738745, "ECCENTRICITY": 0.0001592, "INCLINATION": 98.625, "RA_OF_ASC_NODE": 64.1341, "ARG_OF_PERICENTER": 89.4651, "MEAN_ANOMALY": 270.6712, "EPHEMERIS_TYPE": 0, "CLASSIFICATION_TYPE": "U", "NORAD_CAT_ID": 43437, "ELEMENT_SET_NO": 999, "REV_AT_EPOCH": 39930, "BSTAR": 7.805e-05, "MEAN_MOTION_DOT": 1.45e-06, "MEAN_MOTION_DDOT": 0}, "tle": {"line1": "1 43437U 18039A   25359.12730630  .00000145  00000+0  78050-4 0  9991", "line2": "2 43437  98.6250  64.1341 0001592  89.4651 270.6712 14.26738745399308"}}, "geometry": {"type": "Point", "coordinates": [63.55418096109338, 5.630723366633313]}}, {"type": "Feature", "properties": {"norad_id": 43461, "name": "GAOFEN-5 01", "group": "resource", "lat": 81.47024363217838, "lon": -119.02114062637229, "alt_km": 684.6835379408767, "timestamp": "2025-12-25T09:48:51.943921+00:00", "meta": {"OBJECT_NAME": "GAOFEN-5 01", "OBJECT_ID": "2018-043A", "EPOCH": "2025-12-24T20:15:17.532288", "MEAN_MOTION": 14.60422427, "ECCENTRICITY": 5.289e-05, "INCLINATION": 98.4345, "RA_OF_ASC_NODE": 322.0236, "ARG_OF_PERICENTER": 244.9883, "MEAN_ANOMALY": 115.1262, "EPHEMERIS_TYPE": 0, "CLASSIFICATION_TYPE": "U", "NORAD_CAT_ID": 43461, "ELEMENT_SET_NO": 999, "REV_AT_EPOCH": 40624, "BSTAR": 0.00010643871, "MEAN_MOTION_DOT": 4.67e-06, "MEAN_MOTION_DDOT": 0}, "tle": {"line1": "1 43461U 18043A   25358.84395292  .00000467  00000+0  10644-3 0  9993", "line2": "2 43461  98.4345 322.0236 0000528 244.9883 115.1262 14.60422427406240"}}, "geometry": {"type": "Point", "coordinates": [-119.02114062637229, 81.47024363217838]}}, {"type": "Feature", "properties": {"norad_id": 43484, "name": "GAOFEN-6", "group": "resource", "lat": 77.52968398111992, "lon": -78.44013963020139, "alt_km": 630.3900171488922, "timestamp": "2025-12-25T09:48:51.943931+00:00", "meta": {"OBJECT_NAME": "GAOFEN-6", "OBJECT_ID": "2018-048A", "EPOCH": "2025-12-25T04:29:10.433184", "MEAN_MOTION": 14.76586543, "ECCENTRICITY": 0.0012542, "INCLINATION": 97.8012, "RA_OF_ASC_NODE": 63.035, "ARG_OF_PERICENTER": 26.5885, "MEAN_ANOMALY": 333.5966, "EPHEMERIS_TYPE": 0, "CLASSIFICATION_TYPE": "U", "NORAD_CAT_ID": 43484, "ELEMENT_SET_NO": 999, "REV_AT_EPOCH": 40771, "BSTAR": 7.3573e-05, "MEAN_MOTION_DOT": 4.65e-06, "MEAN_MOTION_DDOT": 0}, "tle": {"line1": "1 43484U 18048A   25359.18692631  .00000465  00000+0  73573-4 0  9997", "line2": "2 43484  97.8012  63.0350 0012542  26.5885 333.5966 14.76586543407710"}}, "geometry": {"type": "Point", "coordinates": [-78.44013963020139, 77.52968398111992]}}, {"type": "Feature", "properties": {"norad_id": 43585, "name": "GAOFEN-11 01", "group": "resource", "lat": -18.23842042792905, "lon": 64.61098654619923, "alt_km": 423.33434003826096, "timestamp": "2025-12-25T09:48:51.943941+00:00", "meta": {"OBJECT_NAME": "GAOFEN-11 01", "OBJECT_ID": "2018-063A", "EPOCH": "2025-12-25T05:14:38.775840", "MEAN_MOTION": 15.4957008, "ECCENTRICITY": 0.0003897, "INCLINATION": 97.1536, "RA_OF_ASC_NODE": 62.0501, "ARG_OF_PERICENTER": 247.8402, "MEAN_ANOMALY": 112.2436, "EPHEMERIS_TYPE": 0, "CLASSIFICATION_TYPE": "U", "NORAD_CAT_ID": 43585, "ELEMENT_SET_NO": 999, "REV_AT_EPOCH": 41335, "BSTAR": 0.00035423, "MEAN_MOTION_DOT": 0.00019488, "MEAN_MOTION_DDOT": 0}, "tle": {"line1": "1 43585U 18063A   25359.21850435  .00019488  00000+0  35423-3 0  9994", "line2": "2 43585  97.1536  62.0501 0003897 247.8402 112.2436 15.49570080413350"}}, "geometry": {"type": "Point", "coordinates": [64.61098654619923, -18.23842042792905]}}, {"type": "Feature", "properties": {"norad_id": 43613, "name": "ICESAT-2", "group": "resource", "lat": -12.5014431297071, "lon": 63.71161945026082, "alt_km": 485.52317833317284, "timestamp": "2025-12-25T09:48:51.943956+00:00", "meta": {"OBJECT_NAME": "ICESAT-2", "OBJECT_ID": "2018-070A", "EPOCH": "2025-12-25T02:41:21.497568", "MEAN_MOTION": 15.28231954, "ECCENTRICITY": 0.0003065, "INCLINATION": 92.0035, "RA_OF_ASC_NODE": 244.0763, "ARG_OF_PERICENTER": 109.5294, "MEAN_ANOMALY": 250.6286, "EPHEMERIS_TYPE": 0, "CLASSIFICATION_TYPE": "U", "NORAD_CAT_ID": 43613, "ELEMENT_SET_NO": 999, "REV_AT_EPOCH": 40587, "BSTAR": 0.00047879, "MEAN_MOTION_DOT": 0.00013173, "MEAN_MOTION_DDOT": 0}, "tle": {"line1": "1 43613U 18070A   25359.11205437  .00013173  00000+0  47879-3 0  9992", "line2": "2 43613  92.0035 244.0763 0003065 109.5294 250.6286 15.28231954405871"}}, "geometry": {"type": "Point", "coordinates": [63.71161945026082, -12.5014431297071]}}, {"type": "Feature", "properties": {"norad_id": 43719, "name": "HYSIS", "group": "resource", "lat": -49.51267454647528, "lon": -127.16766466445578, "alt_km": 640.9858652917192, "timestamp": "2025-12-25T09:48:51.943967+00:00", "meta": {"OBJECT_NAME": "HYSIS", "OBJECT_ID": "2018-096A", "EPOCH": "2025-12-24T23:01:57.582336", "MEAN_MOTION": 14.78677949, "ECCENTRICITY": 8.535e-05, "INCLINATION": 98.0079, "RA_OF_ASC_NODE": 61.8769, "ARG_OF_PERICENTER": 57.4747, "MEAN_ANOMALY": 302.6546, "EPHEMERIS_TYPE": 0, "CLASSIFICATION_TYPE": "U", "NORAD_CAT_ID": 43719, "ELEMENT_SET_NO": 999, "REV_AT_EPOCH": 38167, "BSTAR": 0.00021306259, "MEAN_MOTION_DOT": 1.51e-05, "MEAN_MOTION_DDOT": 0}, "tle": {"line1": "1 43719U 18096A   25358.95969424  .00001510  00000+0  21306-3 0  9990", "line2": "2 43719  98.0079  61.8769 0000853  57.4747 302.6546 14.78677949381679"}}, "geometry": {"type": "Point", "coordinates": [-127.16766466445578, -49.51267454647528]}}, {"type": "Feature", "properties": {"norad_id": 43783, "name": "KAZSTSAT", "group": "resource", "lat": -31.249018806469472, "lon": 38.60233866716236, "alt_km": 572.3899034262631, "timestamp": "2025-12-25T09:48:51.943977+00:00", "meta": {"OBJECT_NAME": "KAZSTSAT", "OBJECT_ID": "2018-099AB", "EPOCH": "2025-12-25T01:56:47.065056", "MEAN_MOTION": 14.99371736, "ECCENTRICITY": 0.0006299, "INCLINATION": 97.4514, "RA_OF_ASC_NODE": 33.7337, "ARG_OF_PERICENTER": 275.0588, "MEAN_ANOMALY": 84.9917, "EPHEMERIS_TYPE": 0, "CLASSIFICATION_TYPE": "U", "NORAD_CAT_ID": 43783, "ELEMENT_SET_NO": 999, "REV_AT_EPOCH": 38521, "BSTAR": 5.785e-05, "MEAN_MOTION_DOT": 6.52e-06, "MEAN_MOTION_DDOT": 0}, "tle": {"line1": "1 43783U 18099AB  25359.08110029  .00000652  00000+0  57850-4 0  9998", "line2": "2 43783  97.4514  33.7337 0006299 275.0588  84.9917 14.99371736385211"}}, "geometry": {"type": "Point", "coordinates": [38.60233866716236, -31.249018806469472]}}, {"type": "Feature", "properties": {"norad_id": 43831, "name": "SAUDISAT 5A", "group": "resource", "lat": 37.447041090199995, "lon": -114.98475770411092, "alt_km": 487.72872602352345, "timestamp": "2025-12-25T09:48:51.943987+00:00", "meta": {"OBJECT_NAME": "SAUDISAT 5A", "OBJECT_ID": "2018-102A", "EPOCH": "2025-12-25T04:28:21.821088", "MEAN_MOTION": 15.25807061, "ECCENTRICITY": 0.0011049, "INCLINATION": 97.333, "RA_OF_ASC_NODE": 59.1369, "ARG_OF_PERICENTER": 37.4884, "MEAN_ANOMALY": 322.7123, "EPHEMERIS_TYPE": 0, "CLASSIFICATION_TYPE": "U", "NORAD_CAT_ID": 43831, "ELEMENT_SET_NO": 999, "REV_AT_EPOCH": 38912, "BSTAR": 0.00028089, "MEAN_MOTION_DOT": 7.122e-05, "MEAN_MOTION_DDOT": 0}, "tle": {"line1": "1 43831U 18102A   25359.18636367  .00007122  00000+0  28089-3 0  9996", "line2": "2 43831  97.3330  59.1369 0011049  37.4884 322.7123 15.25807061389126"}}, "geometry": {"type": "Point", "coordinates": [-114.98475770411092, 37.447041090199995]}}, {"type": "Feature", "properties": {"norad_id": 43833, "name": "SAUDISAT 5B", "group": "resource", "lat": -29.99600048594411, "lon": -122.15229313964261, "alt_km": 501.3643866915754, "timestamp": "2025-12-25T09:48:51.943997+00:00", "meta": {"OBJECT_NAME": "SAUDISAT 5B", "OBJECT_ID": "2018-102C", "EPOCH": "2025-12-25T04:10:33.739104", "MEAN_MOTION": 15.26153065, "ECCENTRICITY": 0.0011791, "INCLINATION": 97.3425, "RA_OF_ASC_NODE": 61.8857, "ARG_OF_PERICENTER": 39.5208, "MEAN_ANOMALY": 320.6888, "EPHEMERIS_TYPE": 0, "CLASSIFICATION_TYPE": "U", "NORAD_CAT_ID": 43833, "ELEMENT_SET_NO": 999, "REV_AT_EPOCH": 38923, "BSTAR": 0.00025232, "MEAN_MOTION_DOT": 6.458e-05, "MEAN_MOTION_DDOT": 0}, "tle": {"line1": "1 43833U 18102C   25359.17400161  .00006458  00000+0  25232-3 0  9996", "line2": "2 43833  97.3425  61.8857 0011791  39.5208 320.6888 15.26153065389238"}}, "geometry": {"type": "Point", "coordinates": [-122.15229313964261, -29.99600048594411]}}, {"type": "Feature", "properties": {"norad_id": 44622, "name": "GAOFEN-10R", "group": "resource", "lat": -16.43070097560053, "lon": -50.64845622167259, "alt_km": 620.6903804071007, "timestamp": "2025-12-25T09:48:51.944008+00:00", "meta": {"OBJECT_NAME": "GAOFEN-10R", "OBJECT_ID": "2019-066A", "EPOCH": "2025-12-24T22:33:08.830656", "MEAN_MOTION": 14.82832354, "ECCENTRICITY": 0.00070184, "INCLINATION": 98.0294, "RA_OF_ASC_NODE": 306.4946, "ARG_OF_PERICENTER": 5.9714, "MEAN_ANOMALY": 354.1582, "EPHEMERIS_TYPE": 0, "CLASSIFICATION_TYPE": "U", "NORAD_CAT_ID": 44622, "ELEMENT_SET_NO": 999, "REV_AT_EPOCH": 33655, "BSTAR": 0.00021319024, "MEAN_MOTION_DOT": 1.671e-05, "MEAN_MOTION_DDOT": 0}, "tle": {"line1": "1 44622U 19066A   25358.93968554  .00001671  00000+0  21319-3 0  9995", "line2": "2 44622  98.0294 306.4946 0007018   5.9714 354.1582 14.82832354336556"}}, "geometry": {"type": "Point", "coordinates": [-50.64845622167259, -16.43070097560053]}}]}